{"type": "FeatureCollection", "features": [{"type": "Feature", "properties": {"identifier": "00a65d67-d8be-478b-acdc-8288b222b962", "name": "Lettensaal 3", "description": "<p>Ausgestattet mit einem Konferenztisch sowie einem LCD-Screen, bietet er die ideale Bedingung als Break out Room oder als kleiner Meeting-Raum mit einer U-Form f\u00fcr bis zu 10 Personen.</p>", "openstreetmap_id": "node/519736102"}, "geometry": {"type": "Point", "coordinates": ["8.480145", "47.569445"]}}, {"type": "Feature", "properties": {"identifier": "040cb422-afbf-4460-bc79-3d7e5b1f0cfa", "name": "Johann Conrad Fischer Zimmer", "openstreetmap_id": "relation/8202830"}, "geometry": {"type": "Point", "coordinates": ["8.6762216", "47.6842585"]}}, {"type": "Feature", "properties": {"identifier": "0476678e-fdf7-4a2e-8bb2-066bf19ca451", "name": "Bleiche 2", "description": "Der Raum Bleiche 2 ist ein Teil des grossen Ballsaals.\n\nAlle unsere Eventr\u00e4ume verf\u00fcgen \u00fcber viel Tageslicht mit bodentiefen Panoramafenstern, haben keine S\u00e4ulen und eine Deckenh\u00f6he von 3.80 m mit besonders hervorragender Akustik.", "image": "https://shltpimtsoch.sos-ch-dk-2.exoscale-cdn.com/catalog/a/5/b/f/a5bfa52f9bfb579e68c8453dc04dd8cf20331b54_Event_room___Bleiche_2_5_Chevron.jpg", "openstreetmap_id": "node/3156438855"}, "geometry": {"type": "Point", "coordinates": ["8.6321377", "47.6991974"]}}, {"type": "Feature", "properties": {"identifier": "055079b0-2118-4e0e-9bfb-49b956df83c9", "name": "Eishalle (IWC Arena)", "description": "Unsere Halle bietet Platz f\u00fcr bis zu 1400 G\u00e4ste und eignet sich ideal f\u00fcr Events wie Konzerte, Ausstellungen oder Firmenanl\u00e4sse \u2013 vor allem im Sommerhalbjahr. Zwischen Oktober und M\u00e4rz sind zudem Winteranl\u00e4sse wie Plauschhockey-Spiele m\u00f6glich.", "image": "https://shltpimtsoch.sos-ch-dk-2.exoscale-cdn.com/catalog/9/a/1/9/9a1931bcaf8ff8de8b8c405993358e4af6538de9_Seminar.jpg"}}, {"type": "Feature", "properties": {"identifier": "07705649-1a65-4824-bec2-7ee49badd023", "name": "Lettensaal 2", "description": "<p>Hier k\u00f6nnen Sie eine individuelle Bestuhlung w\u00e4hlen und der Raum bietet viel Fl\u00e4che f\u00fcr &quot;socialising&quot; neben dem Arbeiten direkt im Raum.</p>", "openstreetmap_id": "node/519736102"}, "geometry": {"type": "Point", "coordinates": ["8.480145", "47.569445"]}}, {"type": "Feature", "properties": {"identifier": "0a127761-2f3d-4071-9e90-b2b94db7405c", "name": "Sitzungszimmer", "description": "Der besondere Charme des Hotels zieht sich auch durch die Meetingr\u00e4ume. Der hochwertige Riemenboden Holzboden und die Holzbalken schaffen eine warme, angenehme Atmosph\u00e4re. Auf Wunsch k\u00fcmmern wir uns um die passende Kulinarik in den Pausen.", "image": "https://shltpimtsoch.sos-ch-dk-2.exoscale-cdn.com/catalog/b/d/9/2/bd92b335020016dce20d04dd03a3e7ba831163c6_sorell_hotel_rueden_schaffhausen_seminarraum_sitzungszimmer.jpg", "openstreetmap_id": "node/3178863254"}, "geometry": {"type": "Point", "coordinates": ["8.6322501", "47.69672"]}}, {"type": "Feature", "properties": {"identifier": "0b175d71-5aa8-4efc-800a-0853df0bba18", "name": "Sitzungszimmer 2"}}, {"type": "Feature", "properties": {"identifier": "0cb668b1-d457-4085-a5e5-38c60c62c220", "name": "Rhein 5", "description": "<p>In Kombination mit den Lettens\u00e4len auf diesem Stockwerk und mit seinen 128m\u00b2 hat der Raum die ideale Gr\u00f6sse f\u00fcr Gruppen von 20 bis 50 Personen. Im Vorraum / Entr\u00e9e geniessen Sie zwischendurch eine Kaffeepause. Auf dem gleichen Stock befinden sich rund um das Lettensaal-Foyer (wird Ende Mai fertiggestellt) weitere 6 R\u00e4ume, die zus\u00e4tzlich als Gruppenr\u00e4ume genutzt werden k\u00f6nnen. Das Stockwerk kann bei Wunsch auch exklusiv gemietet werden.</p>", "openstreetmap_id": "node/519736102"}, "geometry": {"type": "Point", "coordinates": ["8.480145", "47.569445"]}}, {"type": "Feature", "properties": {"identifier": "0ce75b24-6b6e-4812-9b82-26279a91a00e", "name": "Bleiche 1", "description": "Der Raum Bleiche 1 ist ein Teil des grossen Ballsaals. Ein Beamer mit einer Leinwand und ein hervorragendes Soundsystem sind fix installiert. Zudem \u00fcberzeugt der Raum mit Tageslicht dank bodentiefer Panoramafenster sowie klimatisierte Bel\u00fcftung im Minergiestandard.", "image": "https://shltpimtsoch.sos-ch-dk-2.exoscale-cdn.com/catalog/0/2/e/6/02e66e5951949130ce0cdeebf16a21746d9e1255_Bleiche_1.jpg", "openstreetmap_id": "node/3156438855"}, "geometry": {"type": "Point", "coordinates": ["8.6321377", "47.6991974"]}}, {"type": "Feature", "properties": {"identifier": "0d83db62-2d84-4324-a7a0-c79ef0920fb3", "name": "Denkmalgepflegtes F\u00e4rberhaus", "description": "<p>Deine ideale Ausgangslage f&uuml;r den Besuch des gr&ouml;ssten Wasserfalls Europas, den Rheinfall, sowie der historischen St&auml;dte Schaffhausen und Stein am Rhein. Die Region bietet zudem wunderbare Wanderwege, Velotouren und vielf&auml;ltige Entdeckungen entlang des Rheins und des Bodensees.</p><ul><li>Ausblick auf den Rhein\u2028</li><li>Sorgf&auml;ltige Renovation unter Denkmalschutz\u2028</li><li>Eigener Sitzplatz\u2028</li><li>Badewanne im Schlafzimmer\u2028</li><li>Hotellerie Bettw&auml;sche und Badet&uuml;cher</li><li>Direkter Anschluss per Boot nach Schaffhausen</li><li>Bialetti Espressokanne, Milchsch&auml;umer, Teeset</li><li>Waschmaschine und W&auml;schetrockner\u2028</li><li>Eigener Parkplatz\u2028</li><li>Abstellraum f&uuml;r Fahrrad und Kinderwagen</li><li>Arbeitsplatz\u2028</li><li>10 Minuten von der Autobahnausfahrt entfernt\u2028</li><li>40 Minuten mit dem Auto nach Z&uuml;rich Hauptbahnhof und Konstanz</li></ul><p>Das fr&uuml;here Farblager neben dem Hauptgeb&auml;ude, das einst zur Stofff&auml;rberei geh&ouml;rte, wurde 2023 liebevoll zu einer Wohnung umgebaut. Nachdem das Geb&auml;ude lange dem Verfall &uuml;berlassen war, wurde es mit grosser Sorgfalt und Respekt gegen&uuml;ber der bestehenden Substanz vollst&auml;ndig restauriert und neu aufgebaut. Im Innern erinnern historische Holzbalken sowie Teile der ersten Diessenhofer Stadtmauer an die lange Geschichte des Hauses.<br>Das F&auml;rberhaus geh&ouml;rt zum geschichtstr&auml;chtigen Geb&auml;udekomplex aus dem Jahr 1518 und liegt direkt am Rhein im historischen St&auml;dtchen Diessenhofen. Heute verbindet die Wohnung historische Architektur mit einem ruhigen, modernen Design.</p><p>Im Erdgeschoss &ouml;ffnet eine grosse Fensterfront den Wohnbereich zum Sitzplatz und zum Rhein hin. Hier befinden sich die K&uuml;che, ein Esstisch sowie ein gem&uuml;tliches Wohnzimmer, das zum Lesen oder Musikh&ouml;ren einl&auml;dt. Die voll ausgestattete K&uuml;che l&auml;dt zum Kochen ein. Zus&auml;tzlich stehen eine Bialetti-Espressokanne, ein Milchsch&auml;umer und ein Teeset bereit. Im selben Geschoss kann auch eine Waschmaschine mit Trocknerfunktion benutzt werden.</p><p>Im ersten Obergeschoss liegt das Schlafzimmer mit Doppelbett und einer kleinen Leseecke. Durch das Fenster f&auml;llt der Blick Richtung Rhein. Ein besonderes Detail ist die grossz&uuml;gige, zum Raum offene Badewanne. Nat&uuml;rlich werden Handt&uuml;cher, Shampoo und Duschgel zur Verf&uuml;gung gestellt. Hier ist auch ein Arbeitsplatz eingerichtet, damit du deine Gedanken ins Notizbuch schreiben, etwas malen oder Postkarten versenden kannst.</p><p>&Uuml;ber eine steile Leiter gelangt man auf die Galerie, einen gem&uuml;tlichen Schlafbereich unter dem Dach. Hier k&ouml;nnen zwei weitere G&auml;ste &uuml;bernachten. Aufgrund der Leiter eignet sich dieser Bereich besonders f&uuml;r Jugendliche oder Erwachsene.</p><p>Vor dem Haus befindet sich ein privater Sitzplatz mit Tisch und vier St&uuml;hlen, umgeben von Pflanzen. Perfekt f&uuml;r einen Kaffee am Morgen oder ein Glas Wein am Abend. Direkt daneben verl&auml;uft der beliebte Rheinwanderweg. So ist das Haus Teil des lebendigen Flussufers und gleichzeitig ein wunderbarer Ausgangspunkt f&uuml;r Spazierg&auml;nge, Velotouren und Entdeckungen entlang des Rheins.<br>Die charmante Altstadt von Diessenhofen und der Hafen sind in wenigen Minuten zu Fuss erreichbar.</p><p>Weitere relevante Angaben:</p><ul><li>steile Treppenleiter zu Galerie &ndash; bitte vorsichtig benutzen.</li><li>Wir erheben ein Tourimusbeitrag. Wir m&ouml;chten damit die Organisation Thurgau Tourismus und die Region unterst&uuml;tzen.&nbsp;</li></ul><p>Zus&auml;tzliche Dienstleistungen:</p><ul><li>sp&auml;terer Check-out unterliegt der Verf&uuml;gbarkeit</li><li>Reinigung w&auml;hrend des Aufenthalts kann gegen Aufpreis gebucht werden.</li><li>Hunde sind gegen Aufpreis herzlich willkommen.</li><li>Ein Babybett ist auf Anfrage verf&uuml;gbar.</li></ul>", "url": "https://www.airbnb.ch/h/faerberhausdiessenhofen", "image": "https://shltpimtsoch.sos-ch-dk-2.exoscale-cdn.com/catalog/1/7/b/1/17b1efc994429f1e62be4c6bb128654079e05183_Ku__che_und_Esstisch__1_.jpg", "openstreetmap_id": "way/348782877"}, "geometry": {"type": "Point", "coordinates": ["8.751618862152101", "47.69016467237099"]}}, {"type": "Feature", "properties": {"identifier": "0efdefec-be73-46c0-acf3-9a01d47113cb", "name": "S\u00e4ulensaal 2", "description": "<p>Er eignet sich hervorragend f&uuml;r Workshops, Schulungen und Meetings.</p>", "openstreetmap_id": "node/519736102"}, "geometry": {"type": "Point", "coordinates": ["8.480145", "47.569445"]}}, {"type": "Feature", "properties": {"identifier": "0f26f2ed-b6ba-4d96-992c-4871d5052bc2", "name": "Glatt 3", "openstreetmap_id": "node/519736102"}, "geometry": {"type": "Point", "coordinates": ["8.480145", "47.569445"]}}, {"type": "Feature", "properties": {"identifier": "14607a38-49d2-4fc1-8cba-f5953a5d667a", "name": "Seminar 1", "description": "<p>Der Raum bietet je nach Setup Platz fuer 22 Personen im Seminar, 24 in U-Form, 40 in Blockform, 48 beim Bankett sowie bis zu 80 Personen bei Konzert- oder Barbestuhlung.</p>"}}, {"type": "Feature", "properties": {"identifier": "18348903-04a5-43ba-92a7-a91d8304bef0", "name": "Huber-Werdm\u00fcller Halle", "openstreetmap_id": "way/4733562"}, "geometry": {"type": "Point", "coordinates": ["8.6134489", "47.6828558"]}}, {"type": "Feature", "properties": {"identifier": "1c76235f-40b1-4b07-86e6-32b8326e4e55", "name": "Rhein 4 ", "description": "<p>Er liegt neben dem Plenum Rhein 5 und kann auch sehr gut als kleines B\u00fcro f\u00fcr die Seminarorganisation genutzt und gebucht werden. </p>", "openstreetmap_id": "node/519736102"}, "geometry": {"type": "Point", "coordinates": ["8.480145", "47.569445"]}}, {"type": "Feature", "properties": {"identifier": "1cc47263-6f2d-4b31-95db-01d4d62eb209", "name": "Lodge 1 ", "description": "<p>Neben der technischen Ausr\u00fcstung trumpft der Raum mit einem eigenen Balkon mit Sicht auf die Glatt.</p>", "openstreetmap_id": "node/519736102"}, "geometry": {"type": "Point", "coordinates": ["8.480145", "47.569445"]}}, {"type": "Feature", "properties": {"identifier": "1d022e60-44a6-4472-98b7-3d6b0358b9bf", "name": "Innenhof", "openstreetmap_id": "node/274768323"}, "geometry": {"type": "Point", "coordinates": ["8.6412581", "47.6955227"]}}, {"type": "Feature", "properties": {"identifier": "1eda02f5-bbf8-435c-856f-d5e6039b0b73", "name": "Glatt 1", "openstreetmap_id": "node/519736102"}, "geometry": {"type": "Point", "coordinates": ["8.480145", "47.569445"]}}, {"type": "Feature", "properties": {"identifier": "24f88a46-dfde-4f85-8490-eb570dbe5914", "name": "Kleiner + grosser Saal", "openstreetmap_id": "way/195806249"}, "geometry": {"type": "Point", "coordinates": ["8.7112905", "47.7487311"]}}, {"type": "Feature", "properties": {"identifier": "293fbf51-3aab-488c-a93a-fb24f73a234c", "name": "Kleiner Saal ", "description": "<p>Mit 120 m&sup2; bietet der Kleine Saal Platz f&uuml;r verschiedene Veranstaltungsformate. Je nach Bestuhlung eignet sich der Raum f&uuml;r bis zu 216 Personen.</p>", "openstreetmap_id": "way/195806249"}, "geometry": {"type": "Point", "coordinates": ["8.7112905", "47.7487311"]}}, {"type": "Feature", "properties": {"identifier": "2e4e6a16-f0d7-46c9-be7c-a3bf335482c0", "name": "Grillh\u00fctte", "description": "Die Grillh\u00fctte bietet Platz f\u00fcr bis zu 24 Personen \u2013 ideal f\u00fcr kleine Bankette oder Teamevents. In der Mitte sorgt eine offene Feuerstelle f\u00fcr W\u00e4rme und Atmosph\u00e4re. Fleisch, Gem\u00fcse oder Marshmallows \u2013 alles wird direkt am Feuer grilliert. Perfekt f\u00fcr gem\u00fctliche Stunden in geselliger Runde.", "image": "https://shltpimtsoch.sos-ch-dk-2.exoscale-cdn.com/catalog/a/7/3/9/a739573e9b05de5d0f0e22bf908d221926fc154b_DSC_1590.jpg", "openstreetmap_id": "node/6258528119"}, "geometry": {"type": "Point", "coordinates": ["8.6222823", "47.7049109"]}}, {"type": "Feature", "properties": {"identifier": "2f23bacc-501f-4fc9-a1e4-6450afd6a12b", "name": "Bleulersaal", "description": "<p>Grosse Kristallleuchter, weisse S&auml;ulen, runder Kachelofen und Spiegel - das ist der Bleulersaal. Gr&ouml;sse: 80 m2.</p>", "image": "https://shltpimtsoch.sos-ch-dk-2.exoscale-cdn.com/catalog/a/f/a/e/afae0bc0b1d0aec8c63ca5a98f60c43e76b061ab_00_SL_Bleulersaal_Abendrestaurant_006.jpg", "openstreetmap_id": "way/219320631"}, "geometry": {"type": "Point", "coordinates": ["8.6148474", "47.676799"]}}, {"type": "Feature", "properties": {"identifier": "30232148-9529-4a1c-9369-1926a3332fa9", "name": "Sitzungszimmer 3"}}, {"type": "Feature", "properties": {"identifier": "31aec6b5-c304-4820-9cd9-30d85a1e4f65", "name": "Curlinghalle", "description": "Die Curlinghalle bietet Raum f\u00fcr unvergessliche Events mit bis zu 760 Personen bei Banketten, Ap\u00e9ros, Konzerten usw. In der Wintersaison wird sie zus\u00e4tzlich f\u00fcr Plausch-Curling genutzt \u2013 perfekt kombinierbar mit einem Mittag- oder Nachtessen.", "image": "https://shltpimtsoch.sos-ch-dk-2.exoscale-cdn.com/catalog/f/1/1/6/f1168243370290cecffb305d684a59138f18afa4_Bankett_2.jpg"}}, {"type": "Feature", "properties": {"identifier": "35a42b65-a35f-4aa7-b5d3-2e02491c199e", "name": "Sch\u00fc\u00fcr\u00adstube", "description": "<p>Die Scheune wurde liebevoll mit grosser R\u00fccksicht auf sch\u00fctzenswerten Elemente zu einem einzigartigen Veranstaltungslokal umgebaut.</p>", "openstreetmap_id": "way/654206169"}, "geometry": {"type": "Point", "coordinates": ["8.859727978687095", "47.658866047334016"]}}, {"type": "Feature", "properties": {"identifier": "35e1c8d5-7cae-4fbc-a61a-304487716c9d", "name": "Munot 2", "openstreetmap_id": "node/3156438855"}, "geometry": {"type": "Point", "coordinates": ["8.6321377", "47.6991974"]}}, {"type": "Feature", "properties": {"identifier": "39e3ccb3-0a05-4234-b603-1ae85ab92779", "name": "Bistro-Saal", "openstreetmap_id": "way/168408693"}, "geometry": {"type": "Point", "coordinates": ["8.6593763", "47.6971527"]}}, {"type": "Feature", "properties": {"identifier": "3b6e9dae-dd87-4e7f-b7ea-9081ffc8e0e5", "name": "Saal", "description": "F\u00fcr Gruppen bis 45 Personen steht unser stimmungsvolle Saal mit Beamer, TV, Leinwand und Flipchart zur Verf\u00fcgung. Bei gr\u00f6sseren Gruppen kann der Saal mit dem Restaurant kombiniert werden \u2013 so bewirten wir bis zu 65 G\u00e4ste.", "image": "https://shltpimtsoch.sos-ch-dk-2.exoscale-cdn.com/catalog/0/d/a/b/0dab3aded19451fade745d7b715419a2d301e492_Saal_KSS_Rest.jpg", "openstreetmap_id": "node/6258528119"}, "geometry": {"type": "Point", "coordinates": ["8.6222823", "47.7049109"]}}, {"type": "Feature", "properties": {"identifier": "3b79b9a2-28db-4916-ad5b-cec06fc45c63", "name": "Unterrichtszimmer", "description": "<p>Der Raum eignet sich f&uuml;r Unterricht, Workshops oder Besprechungen im kleineren Rahmen. Die klare Ausrichtung auf Lern- und Arbeitssituationen macht ihn passend f&uuml;r Gruppen, die eine kompakte und funktionale Umgebung suchen.</p>", "openstreetmap_id": "way/168408693"}, "geometry": {"type": "Point", "coordinates": ["8.6593763", "47.6971527"]}}, {"type": "Feature", "properties": {"identifier": "3f409534-0e31-4553-8621-9a78f0869eea", "name": "Klarissinnenzimmer I", "openstreetmap_id": "relation/8202830"}, "geometry": {"type": "Point", "coordinates": ["8.6762216", "47.6842585"]}}, {"type": "Feature", "properties": {"identifier": "42ff935f-64bf-462d-8c58-6e9dea046e4f", "name": "Plenum", "description": "In unserem Plenum sind ein Beamer und eine Leinwand fix installiert. Der Raum l\u00e4sst sich flexibel mit dem Gruppenraum nebenan nutzen.", "image": "https://shltpimtsoch.sos-ch-dk-2.exoscale-cdn.com/catalog/6/f/c/0/6fc032ad46c811846bfc8942bf2ad4b5a1d8c62d_sorell_hotel_rueden_schaffhausen_seminarraum_plenum_v3.jpg", "openstreetmap_id": "node/3178863254"}, "geometry": {"type": "Point", "coordinates": ["8.6322501", "47.69672"]}}, {"type": "Feature", "properties": {"identifier": "43dd516b-8eef-46be-8584-ff74e023f230", "name": "Rhein 1", "description": "<p>Steht aber in seiner Ausstattung den anderen R\u00e4umlichkeiten in nichts nach.</p>", "openstreetmap_id": "node/519736102"}, "geometry": {"type": "Point", "coordinates": ["8.480145", "47.569445"]}}, {"type": "Feature", "properties": {"identifier": "45c5ae49-67d6-4250-9625-9d1d0b63db53", "name": "Klosterplatz", "description": "<p>Der Platz verbindet das historische Umfeld vor der Klosterhalle mit einer gastlichen Atmosph&auml;re und eignet sich f&uuml;r Anlaesse, bei denen eine besondere Kulisse gefragt ist.</p>"}}, {"type": "Feature", "properties": {"identifier": "474f3542-ef71-44dd-9fd9-37284e952992", "name": "Lettensaal 5", "openstreetmap_id": "node/519736102"}, "geometry": {"type": "Point", "coordinates": ["8.480145", "47.569445"]}}, {"type": "Feature", "properties": {"identifier": "48c10fed-a5ac-4ed3-abee-e2aba86a05b9", "name": "K\u00e4mmereisaal", "description": "<p>Hier spiegelt sich der architektonische Ansatz wieder: &laquo;altes belassen, wertloses entfernen und neues im Zeitgeist erg&auml;nzen&raquo;. Bis zu 450 Personen k&ouml;nnen das einzigartige Ambiente erleben. Der K&auml;mmereisaal empfiehlt sich f&uuml;r alle Feierlichkeiten ab 60 Personen. Im K&auml;mmereisaal sind alle Ihre W&uuml;nsche umsetzbar. Ob serviertes Men&uuml; oder Buffet, ob Band oder DJ mit Tanzfl&auml;che, der K&auml;mmereisaal bietet gen&uuml;gend Platz Ihren Gesch&auml;fts- oder Privatanlass zu zelebrieren.</p>", "image": "https://shltpimtsoch.sos-ch-dk-2.exoscale-cdn.com/catalog/1/b/b/5/1bb541b0e30b217fe69da2ebc7dc45092b8165ba_riverside_saal.jpg", "openstreetmap_id": "node/519736102"}, "geometry": {"type": "Point", "coordinates": ["8.480145", "47.569445"]}}, {"type": "Feature", "properties": {"identifier": "4a49800d-0468-4bbe-83a8-b2a8bcd884e8", "name": "Glatt 2", "openstreetmap_id": "node/519736102"}, "geometry": {"type": "Point", "coordinates": ["8.480145", "47.569445"]}}, {"type": "Feature", "properties": {"identifier": "4a7b2260-b859-40e0-a99d-3b402c6494ec", "name": "Spinnereisaal 2", "openstreetmap_id": "node/519736102"}, "geometry": {"type": "Point", "coordinates": ["8.480145", "47.569445"]}}, {"type": "Feature", "properties": {"identifier": "4cb3a4ae-2657-4511-8303-5699c284d9fb", "name": "Boldersaal", "description": "<p>Feste feiern nat&uuml;rlich anders. Der Bolderhof liegt eingebettet in die wundersch&ouml;ne Rheinlandschaft und ist eine einzigartige Eventlocation. Wir bieten<span lang=\"DE-CH\"> spannenden Rahmenprogramme an wie Kuhreiten, Bauernhof-Olympiade und Erlebnisk&auml;sen und organiseren alles f&uuml;r euch inkl. Ap&eacute;ro, Zvieripl&auml;ttli, Mittag- oder Abendessen und Aktivit&auml;ten!</span></p>", "image": "https://shltpimtsoch.sos-ch-dk-2.exoscale-cdn.com/catalog/5/f/f/4/5ff41eda0423f173225dde02a68685bb9819c29d_Hochzeit_1.JPG"}}, {"type": "Feature", "properties": {"identifier": "4f508e0f-4ff9-40b5-b954-8476f57ab4e9", "name": "Besprechungsraum 2", "openstreetmap_id": "way/145219181"}, "geometry": {"type": "Point", "coordinates": ["8.8602204", "47.6594087"]}}, {"type": "Feature", "properties": {"identifier": "52fe91a3-b7d6-4ad1-a744-6ed7adbbeaba", "name": "Castello", "description": "<p>Das Castello ist der ehemalige Bannersaal des Schlosses. Im Hintergrund lodert ein im Winter ein heimeliges Kaminfeuer.<br>120 m2.</p>", "image": "https://shltpimtsoch.sos-ch-dk-2.exoscale-cdn.com/catalog/c/6/6/6/c666fb014c069bc42fab99e32c338d8635b36ad4_SchlossLaufen_Castello2.jpg", "openstreetmap_id": "way/219320631"}, "geometry": {"type": "Point", "coordinates": ["8.6148474", "47.676799"]}}, {"type": "Feature", "properties": {"identifier": "56803996-7412-4fc6-8f42-6344a81fb3b4", "name": "Seminar 1 + 2", "description": "<p>Seminar 1 + 2 ist ein flexibel nutzbarer Meetingraum f&uuml;r Seminare, Tagungen und Veranstaltungen.</p>", "openstreetmap_id": "node/2955607720"}, "geometry": {"type": "Point", "coordinates": ["8.6402407", "47.704789"]}}, {"type": "Feature", "properties": {"identifier": "56dedcf1-7aeb-45b3-a691-964a5e6f34bc", "name": "Artist in Residence Chretzeturm", "description": "<p>Die Kunstschaffenden unterschiedlicher Disziplinen leben und arbeiten hier f&uuml;r mehrere Monate. Der Aufenthalt bietet den G&auml;sten Zeit und Raum zur Auseinandersetzung mit dem lokalen gesellschaftlichen Kontext, f&uuml;r k&uuml;nstlerische Experimente und die Entwicklung neuer Werke.</p>", "url": "https://air-chretzeturm.ch/", "image": "https://shltpimtsoch.sos-ch-dk-2.exoscale-cdn.com/catalog/4/a/7/6/4a76a9f62e1792961faeb846e8ac6606139efdfe_Chretze_0019_anonym_kl.jpg", "openstreetmap_id": "way/145079177"}, "geometry": {"type": "Point", "coordinates": ["8.860412001904171", "47.66010845"]}}, {"type": "Feature", "properties": {"identifier": "59d9edc4-d830-4c0d-87ac-076808505725", "name": "Hofsaal", "description": "<p>Lunchbuffets im Rahmen von Tagungen, Seminaren und Konferenzen richten wir ebenfalls gerne im Foyer mit zus\u00e4tzlichen 105 qm an.</p>"}}, {"type": "Feature", "properties": {"identifier": "5e4f6c70-7225-4f5c-b3a3-f916ddcfd468", "name": "Spinnereisaal 1", "description": "<p>Spinnereisaal 1 ist ein 128 m&sup2; grosser Raum f&uuml;r Seminare, Sitzungen und Anl&auml;sse.</p>", "openstreetmap_id": "node/519736102"}, "geometry": {"type": "Point", "coordinates": ["8.480145", "47.569445"]}}, {"type": "Feature", "properties": {"identifier": "6345895a-5b85-4c0a-925e-1af654c019e9", "name": "Sitzungszimmer 1", "description": "<p>Dieser Meetingraum eignet sich f&uuml;r Sitzungen und kleine Besprechungen in &uuml;berschaubarem Rahmen.</p>"}}, {"type": "Feature", "properties": {"identifier": "656d16d8-1c2f-41b0-97af-80f125b47528", "name": "Carnotzet"}}, {"type": "Feature", "properties": {"identifier": "69eba73a-4387-4fb8-af69-88d354d190e2", "name": "Schlossstube", "description": "<p>20 m2, bis maximal 12 Personen.</p>", "image": "https://shltpimtsoch.sos-ch-dk-2.exoscale-cdn.com/catalog/b/3/2/e/b32ef8b9d81acda7f9fc3fd892327e6cb04a60b0_SL_4596_Internet_Schlossstube_Seminar_12709.jpg", "openstreetmap_id": "way/219320631"}, "geometry": {"type": "Point", "coordinates": ["8.6148474", "47.676799"]}}, {"type": "Feature", "properties": {"identifier": "6f8c8fad-608c-4c1c-8df6-1ad6415dbe54", "name": "Restaurant", "description": "Unser \u00f6ffentlich zug\u00e4ngliches Restaurant bietet t\u00e4glich frisch zubereitete Snacks, Salate, Sandwiches, abwechslungsreiche Men\u00fcs und feine Desserts \u2013 ideal f\u00fcr Gruppen bis 65 Personen. Von Mai bis September geniessen Sie zudem unsere grosse Sonnenterrasse.", "image": "https://shltpimtsoch.sos-ch-dk-2.exoscale-cdn.com/catalog/f/d/0/f/fd0fdaba6150c31f67a62a4533cfba15edf06276_DSC_9801_Web.jpg"}}, {"type": "Feature", "properties": {"identifier": "706278ce-b66e-4de1-a142-62e9be52a770", "name": "Albf\u00fchren's Paille", "description": "<p>Hier geniessen Sie den direkten Blick in die Reithalle und k\u00f6nnen die Reiter w\u00e4hrend den Kaffeepausen bewundern. Der helle Holzboden und das grosse Fenster zum Hofgarten schaffen die perfekte Atmosph\u00e4re f\u00fcr produktives Arbeiten Ihrer Tagungs- und Seminarteilnehmer. Albf\u00fchren\u2019s Paille hat mit 51 qm Platz f\u00fcr bis zu 16 Personen.</p>"}, "geometry": {"type": "Point", "coordinates": ["8.484945211579431", "47.64141098021758"]}}, {"type": "Feature", "properties": {"identifier": "70793515-1955-4ac6-9903-cee44a93da55", "name": "Seminarraum", "description": "Sehr ruhiger Raum mit Lage zum Innenhof. Der Seminarraum verf\u00fcgt \u00fcber eine sch\u00f6ne Stuckatur an der Decke sowie einem heimeligen Holzboden.", "image": "https://shltpimtsoch.sos-ch-dk-2.exoscale-cdn.com/catalog/5/a/1/c/5a1c5c95d242c905a26d8c032e1954c5f1d46e47_sorell_hotel_rueden_schaffhausen_seminarraum.jpg", "openstreetmap_id": "node/3178863254"}, "geometry": {"type": "Point", "coordinates": ["8.6322501", "47.69672"]}}, {"type": "Feature", "properties": {"identifier": "7b1d435a-e02c-486d-9ef1-173e335658c1", "name": "M\u00f6nchsbeiz", "description": "<p>Die Scheune wurde liebevoll mit grosser R\u00fccksicht auf sch\u00fctzenswerten Elemente zu einem einzigartigen Veranstaltungslokal umgebaut.</p>", "openstreetmap_id": "way/654206169"}, "geometry": {"type": "Point", "coordinates": ["8.859765529610627", "47.658858824350844"]}}, {"type": "Feature", "properties": {"identifier": "7d7b4e52-7c04-460a-95fd-5bd0298e0974", "name": "M\u00fchle", "description": "<p>Dunkle Holzvert\u00e4felung, eine grosse Fensterfront und ein charmanter Ausblick zum Hengststall geben Ihrer gesch\u00e4ftlichen Veranstaltung eine einzigartig einladende Note.  Je nach Bestuhlung eignet sich die M\u00fchle mit 47 qm f\u00fcr Seminare und kleine Konferenzen f\u00fcr bis zu 10 Personen.</p>"}, "geometry": {"type": "Point", "coordinates": ["8.48517894713718", "47.64147811732108"]}}, {"type": "Feature", "properties": {"identifier": "7dc7a2f8-faf0-4e8f-95f1-86268e1954c3", "name": "Kreativraum 4", "description": "<p>Der Echtholzboden schafft eine edle Umgebung in einem Raum, welcher durch die grossen Fenster mit viel Licht durchflutet ist und eine gem\u00fctliche Atmosph\u00e4re f\u00fcr Events aller Art bietet. Die Sicht in die Werkstatt kann auf Wunsch durch eine Wand verborgen werden.</p>", "openstreetmap_id": "node/10752986782"}, "geometry": {"type": "Point", "coordinates": ["8.6921318", "47.5935036"]}}, {"type": "Feature", "properties": {"identifier": "7e179046-3887-421b-ad53-a227be1f6b3a", "name": "Lodge 2", "description": "<p>Neben der technischen Ausr\u00fcstung trumpft der Raum mit einem eigenen Balkon mit Sicht auf die Glatt.</p>", "openstreetmap_id": "node/519736102"}, "geometry": {"type": "Point", "coordinates": ["8.480145", "47.569445"]}}, {"type": "Feature", "properties": {"identifier": "8208c86f-42d7-49ab-b795-1434e44be043", "name": "Rietmannzimmer", "openstreetmap_id": "relation/8202830"}, "geometry": {"type": "Point", "coordinates": ["8.6762216", "47.6842585"]}}, {"type": "Feature", "properties": {"identifier": "87ffd4dd-abec-40cc-8aa5-1f8fd846a61b", "name": "S\u00e4ulensaal 6", "description": "<p>Ausgestattet mit einem Konferenztisch sowie einem LCD-Screen, bietet er die ideale Bedingung im kleineren Rahmen.</p>", "openstreetmap_id": "node/519736102"}, "geometry": {"type": "Point", "coordinates": ["8.480145", "47.569445"]}}, {"type": "Feature", "properties": {"identifier": "896fe24e-f7a9-4319-9a2a-af316ccdcb6b", "name": "S\u00e4ulensaal 5 ", "openstreetmap_id": "node/519736102"}, "geometry": {"type": "Point", "coordinates": ["8.480145", "47.569445"]}}, {"type": "Feature", "properties": {"identifier": "8c33701a-8bc4-4f6a-826a-f79d99002776", "name": "Laufenstube", "description": "<p>Wichtiges besprechen in passender Umgebung, feiere im intimen Rahmen.</p>", "image": "https://shltpimtsoch.sos-ch-dk-2.exoscale-cdn.com/catalog/1/9/1/9/19196e04ce1c48cbf7123f481a1eb11a74f67d61_SVLaufen092_Internet_2861.jpg", "openstreetmap_id": "way/219320631"}, "geometry": {"type": "Point", "coordinates": ["8.6148474", "47.676799"]}}, {"type": "Feature", "properties": {"identifier": "8c9ee25f-223c-40ee-87f9-4b2f59035e0a", "name": "Albf\u00fchren's Memphis", "description": "<p>Auch das moderne, aber dennoch sehr warme Ambiente schaffen zudem ausgezeichnete Bedingungen f\u00fcr gesch\u00e4ftliche Besprechungen und Seminare bis zu 11 Personen.</p>"}, "geometry": {"type": "Point", "coordinates": ["8.48493448284581", "47.64143709660657"]}}, {"type": "Feature", "properties": {"identifier": "90f1b98c-35f6-4305-9041-3eefbdd84bb7", "name": "Rhein 2", "description": "<p>Topmodern ausgestattet mit einer Audioanlage und zwei individuell-ansteuerbaren Beamern, die eine Doppelprojektion m\u00f6glich machen, ist dieser Raum f\u00fcr Konferenzen jeglicher Art geeignet. Mit seinen 149m\u00b2 bietet er f\u00fcr Gruppen von 20 bis 50 Personen die ideale Gr\u00f6sse.</p>", "openstreetmap_id": "node/519736102"}, "geometry": {"type": "Point", "coordinates": ["8.480145", "47.569445"]}}, {"type": "Feature", "properties": {"identifier": "9313eb3a-42f6-45f0-9766-42d55bf21239", "name": "Weinkeller", "description": "<p>Diese Mauern atmen Geschichte: 500 Jahre alt ist der Weinkeller des Schlosses Laufen am Rheinfall. Hier hegen und pflegen wir mehr als 48 erlesene Weine aus der Region Schaffhausen und dem Z&uuml;rcher Weinland.</p>", "image": "https://shltpimtsoch.sos-ch-dk-2.exoscale-cdn.com/catalog/5/7/d/f/57df64d624dbaa95ec3157a76d451e74f08be2a7_SchlossLaufen_Weinkeller_2015_se.JPG", "openstreetmap_id": "way/219320631"}, "geometry": {"type": "Point", "coordinates": ["8.6148474", "47.676799"]}}, {"type": "Feature", "properties": {"identifier": "93c69661-18d9-4e88-8c5c-14574638a357", "name": "Rundturm", "description": "<p>Mit einem kleinen Balkon mit Sicht auf den Rhein.</p>", "image": "https://shltpimtsoch.sos-ch-dk-2.exoscale-cdn.com/catalog/b/b/5/7/bb57d105cfb5b526a1e4b67b74d161516c40c8ef_00_SL_Rundturm_Balkon.jpg", "openstreetmap_id": "way/219320631"}, "geometry": {"type": "Point", "coordinates": ["8.6148474", "47.676799"]}}, {"type": "Feature", "properties": {"identifier": "93f229ed-6822-45eb-bc2f-56b6ab8e1a9b", "name": "Munot 1", "openstreetmap_id": "node/3156438855"}, "geometry": {"type": "Point", "coordinates": ["8.6321377", "47.6991974"]}}, {"type": "Feature", "properties": {"identifier": "97443651-83af-4ab3-bad0-b676b208c9d9", "name": "Saal 4", "description": "<p>Alle S&auml;le sind durch schiebbare W&auml;nde getrennt und k&ouml;nnen bei Bedarf ge&ouml;ffnet werden.</p>", "image": "https://shltpimtsoch.sos-ch-dk-2.exoscale-cdn.com/catalog/3/5/a/d/35ad13ceb281fa9a8431ff413b2f13938ddb2380_08_pavillon_im_park_schaffhausen.jpg", "openstreetmap_id": "way/218003749"}, "geometry": {"type": "Point", "coordinates": ["8.6299532", "47.6960168"]}}, {"type": "Feature", "properties": {"identifier": "9c821912-5e9f-40dc-a7d8-3693652d78e6", "name": "Bleiche 5", "openstreetmap_id": "node/3156438855"}, "geometry": {"type": "Point", "coordinates": ["8.6321377", "47.6991974"]}}, {"type": "Feature", "properties": {"identifier": "a59c5676-2ac0-444d-a8d0-7deaed0f8826", "name": "S\u00e4ulensaal 7", "description": "<p>Ausgestattet mit einem grossen Konferenztisch sowie einem LCD-Screen, bietet er die ideale Bedingung im kleineren Rahmen.</p>", "openstreetmap_id": "node/519736102"}, "geometry": {"type": "Point", "coordinates": ["8.480145", "47.569445"]}}, {"type": "Feature", "properties": {"identifier": "a938770f-eafe-4cc4-8d95-b57c0b3c0454", "name": "\u00dcbernachten im Zirkuswagen", "description": "\u00dcbernachten in einer Zirkus Atmosph\u00e4re\n\nSchlafen Sie im Zirkuswagen mitten im Naturpark Schaffhausen und Blauburgunderland direkt neben dem Biotop unter alten Apfelb\u00e4umen. Geniessen Sie ein sch\u00f6nes Ambiente auf der Sonnenterrasse oder veranstalten Sie einen Grillplausch auf dem Grillplatz. F\u00fcr Kinder gibt es einen Spielplatz zum Austoben. \n\nDer Zirkuswagen ist mit einem grossen Doppelbett und einem Etagebett f\u00fcr zwei Personen ausgestattet. Es hat ein Bad inkl. Dusche und eine kleine K\u00fcche mit K\u00fchlschrank. Der Wagen kann kalten Tagen gek\u00fchlt und in warmen Tagen beheizt werden. Buchen Sie Ihre \u00dcbernachtung mit Zirkus Atmosph\u00e4re in jeder Jahreszeit!", "image": "https://shltpimtsoch.sos-ch-dk-2.exoscale-cdn.com/catalog/1/7/0/b/170b7ee74ccaee35b24e02ecd58c2f7837ed056c_Zirkuswagen_8_f1ab2afe.jpg", "openstreetmap_id": "way/282454696"}, "geometry": {"type": "Point", "coordinates": ["8.432328658312628", "47.6674485"]}}, {"type": "Feature", "properties": {"identifier": "b1a4fe3c-5388-437c-a857-a3b6513eb456", "name": "Munot 1 - 2", "description": "Ein wireless Pr\u00e4stenations TV mit 75\" ist fix installiert. Zudem \u00fcberzeugt der Raum mit Tageslicht dank bodentiefer Panoramafenster sowie klimatisierte Bel\u00fcftung im Minergiestandard.", "image": "https://shltpimtsoch.sos-ch-dk-2.exoscale-cdn.com/catalog/8/2/9/6/8296f7596a18ac129dd95adc4dc910b29ed1af0f_Boardroom_Rheinfall.jpg", "openstreetmap_id": "node/3156438855"}, "geometry": {"type": "Point", "coordinates": ["8.6321377", "47.6991974"]}}, {"type": "Feature", "properties": {"identifier": "b29a88ce-d85e-404c-b957-bc8efce6a13e", "name": "S\u00e4ulensaal 4 ", "description": "<p>Ausgestattet mit einem grossen Konferenztisch sowie einem LCD-Screen, bietet er die ideale Bedingung als Breaktout Room.</p>", "openstreetmap_id": "node/519736102"}, "geometry": {"type": "Point", "coordinates": ["8.480145", "47.569445"]}}, {"type": "Feature", "properties": {"identifier": "b3cbac7b-98ca-4eea-bbf4-9ed889ae6ca6", "name": "Hofstube"}}, {"type": "Feature", "properties": {"identifier": "b470e0ef-153f-4eb5-aebe-7799d3a31297", "name": "Grosser Saal", "description": "<p>Der grosse Saal viel Raum f&uuml;r Veranstaltungen und Meetings. In Konzertbestuhlung finden bis zu 300 Personen Platz.</p>", "openstreetmap_id": "way/168408693"}, "geometry": {"type": "Point", "coordinates": ["8.6593763", "47.6971527"]}}, {"type": "Feature", "properties": {"identifier": "b7d6e31c-7c13-443f-81ce-22e996e42f05", "name": "Sitzungszimmer Konrad Steffenauer", "description": "<p>Das Sitzungszimmer Konrad Steffenauer ist ein klassischer Raum f&uuml;r Besprechungen und kleinere Meetings. Es bietet die notwendigen technischen Einrichtungen und eignet sich f&uuml;r Gruppen mit bis zu 16 Personen.</p>"}}, {"type": "Feature", "properties": {"identifier": "b9aff85f-27e6-42bf-8cc0-d8d9d9fd6971", "name": "Rhein 6", "description": "<p>Im Entr\u00e9e geniessen Sie zwischendurch eine Kaffeepause. Auf dem gleichen Stock befinden sich rund um das Lettensaal-Foyer (wir Ende Mai fertiggestellt) weitere 6 R\u00e4ume, die zus\u00e4tzlich als Gruppenr\u00e4ume genutzt werden k\u00f6nnen. Das Stockwerk kann bei Wunsch auch exklusiv gemietet werden.</p>", "openstreetmap_id": "node/519736102"}, "geometry": {"type": "Point", "coordinates": ["8.480145", "47.569445"]}}, {"type": "Feature", "properties": {"identifier": "ba0ac71b-b7a4-47b1-9291-630c02f71d80", "name": "Lettensaal 6", "description": "<p>Diese Holzbalken trennen den Raum dezent in zwei Bereiche und bietet so einen kleinen Vorraum, welcher als Kaffeepausen Ecke oder zus\u00e4tzlichen Arbeitsraum genutzt werden kann. Ausgestattet mit einem grossen Konferenztisch sowie einem LCD-Screen bietet er verschieden Set Up M\u00f6glichkeiten.</p>", "openstreetmap_id": "node/519736102"}, "geometry": {"type": "Point", "coordinates": ["8.480145", "47.569445"]}}, {"type": "Feature", "properties": {"identifier": "bb8c1f5d-e8bd-4627-9ab6-37b985a7bda9", "name": "Seminarraum \u00abWaldraum\u00bb", "description": "<p>Der Seminarraum &laquo;Waldraum&raquo; ist ein 40 m&sup2; grosser Raum f&uuml;r kleinere Sitzungen, Workshops und Seminare. Er bietet Platz f&uuml;r bis zu 20 Personen. Die ruhige Umgebung, die moderne Infrastruktur und die aufmerksame Betreuung schaffen einen passenden Rahmen f&uuml;r konzentriertes Arbeiten.</p>", "image": "https://shltpimtsoch.sos-ch-dk-2.exoscale-cdn.com/catalog/4/b/e/9/4be97ac3a1edb2c180e2c88110458016c754d987_schmizz_800_9861_small.jpg"}}, {"type": "Feature", "properties": {"identifier": "bca31c25-4531-45fd-a0bb-5e25ab69508b", "name": "Klarissinnenzimmer II", "openstreetmap_id": "relation/8202830"}, "geometry": {"type": "Point", "coordinates": ["8.6762216", "47.6842585"]}}, {"type": "Feature", "properties": {"identifier": "bd8dc9c3-1c55-443b-9051-25b66367fc45", "name": "Bleiche 1 - 5", "description": "Ein Beamer mit einer Leinwand und ein hervorragendes Soundsystem sind fix installiert. Zudem \u00fcberzeugt der Raum mit Tageslicht dank bodentiefer Panoramafenster sowie klimatisierte Bel\u00fcftung im Minergiestandard.", "image": "https://shltpimtsoch.sos-ch-dk-2.exoscale-cdn.com/catalog/8/9/4/a/894ae06f40a86ea3ee35611a0341a63404b59895_Bleiche_1_5.jpg", "openstreetmap_id": "node/3156438855"}, "geometry": {"type": "Point", "coordinates": ["8.6321377", "47.6991974"]}}, {"type": "Feature", "properties": {"identifier": "be244258-002d-4e8e-8e27-ef91156e6d4d", "name": "Jakob und Emma Windler-Saal"}}, {"type": "Feature", "properties": {"identifier": "be2bab4d-1442-4bb0-8a7b-19e1c211b1c5", "name": "Innenhof", "openstreetmap_id": "node/2955607720"}, "geometry": {"type": "Point", "coordinates": ["8.6402407", "47.704789"]}}, {"type": "Feature", "properties": {"identifier": "bf17a8ef-ca74-4f35-884b-cea44197052e", "name": "Kuppelraum", "description": "Eine eindrucksvolle Kuppel, weiche Farbt\u00f6ne sowie ein Fischparkettboden verleihen dem Kuppelraum einen besonderen Charme. Wie in jedem Raum ist auch technisches Equipment wie ein Beamer vorhanden.", "image": "https://shltpimtsoch.sos-ch-dk-2.exoscale-cdn.com/catalog/1/0/0/1/1001ce796f1aaf6dc1f5e521f8d180c26746b57d_sorell_hotel_rueden_schaffhausen_seminarraum_kuppelraum.jpg", "openstreetmap_id": "node/3178863254"}, "geometry": {"type": "Point", "coordinates": ["8.6322501", "47.69672"]}}, {"type": "Feature", "properties": {"identifier": "c21d20bc-ae63-4faa-8a6e-10bfab136123", "name": "Klosterzimmer", "openstreetmap_id": "relation/8202830"}, "geometry": {"type": "Point", "coordinates": ["8.6762216", "47.6842585"]}}, {"type": "Feature", "properties": {"identifier": "c53464f8-0ace-4939-87fd-16d028010a7a", "name": "Rittersaal", "description": "<p>Speise Sie im Prunkst&uuml;ck des Schlosses mit bis zu 200 Personen, dem gr&ouml;ssten Bankett- und Seminarraum in der Region. Der Saal kann zweigeteilt oder komplett reserviert werden.</p>", "image": "https://shltpimtsoch.sos-ch-dk-2.exoscale-cdn.com/catalog/2/f/6/e/2f6e79c943de8c814d0e24751d23cda62da45a80_00_SL_Rittersaal_Feiern.jpg"}}, {"type": "Feature", "properties": {"identifier": "cc7f7a65-3a88-4e23-b8d9-319b148ce2bb", "name": "S\u00e4ulensaal 3", "description": "<p>Ausgestattet mit einem grossen Konferenztisch sowie einem LCD-Screen, ist er optimal als Gruppenraum geeignet.</p>", "openstreetmap_id": "node/519736102"}, "geometry": {"type": "Point", "coordinates": ["8.480145", "47.569445"]}}, {"type": "Feature", "properties": {"identifier": "ce869a60-839e-41da-a1d5-9641b247aae2", "name": "Rhein 3", "description": "<p>Somit m\u00fcssen Sie nicht in eines der grossen Kunstmuseen, wo die bekannte Sammlung ausgestellt ist. Buchen Sie einfach ein Seminar, eine Konferenzen oder ein Meeting im Rhein 3. Mit seinen 146m\u00b2 ist der Raum die ideale Gr\u00f6sse f\u00fcr Gruppen von 20 bis 50 Personen.</p>", "openstreetmap_id": "node/519736102"}, "geometry": {"type": "Point", "coordinates": ["8.480145", "47.569445"]}}, {"type": "Feature", "properties": {"identifier": "d229ffa9-fef3-460b-9223-56750a494621", "name": "Lettensaal 4", "description": "<p>Ausgestattet mit einem Konferenztisch sowie einem LCD-Screen, bietet er die ideale Bedingung als Break out Room.</p>", "openstreetmap_id": "node/519736102"}, "geometry": {"type": "Point", "coordinates": ["8.480145", "47.569445"]}}, {"type": "Feature", "properties": {"identifier": "d2e32aa1-5cd5-40ed-b7a4-709770964b8f", "name": "Saal", "description": "<p>Der Saal kann mit runden oder rechteckigen Tischen eingerichtet werden und bietet je nach M&ouml;bilierungsart bis zu 120 Personen Platz. Ein Beispiel f&uuml;r die verschiedenen Varianten k&ouml;nnen Sie auf dem Bild sehen. F&uuml;r Versammlungen usw. steht Ihnen ein Beamer zur Verf&uuml;gung. Eine Grunddeko ist immer vorhanden.&nbsp;<br>Der Saal ist per Treppe oder mit Lift vom Haupteingang aus erreichbar. Es gibt separate WC-Anlagen f&uuml;r die Saalg&auml;ste.&nbsp;<br>Sehr gerne stellen wir Ihnen ein zugeschnittenes Angebot zusammen.&nbsp;</p>", "image": "https://shltpimtsoch.sos-ch-dk-2.exoscale-cdn.com/catalog/6/f/e/a/6feace68fe9448aa8f61295a02f5e7befbe1e358_gasthof_ziegelhutte_saal_panorama_e1641448459906_1024x365.jpg", "openstreetmap_id": "way/1022789317"}, "geometry": {"type": "Point", "coordinates": ["8.6286835", "47.7275976"]}}, {"type": "Feature", "properties": {"identifier": "d35d8650-a1e5-4127-8c92-5af4f8ec1a42", "name": "Glatt 1 + 2", "description": "<p>Auch dieser Raum l\u00e4sst sich durch eine mobile Trennwand in zwei R\u00e4ume \u00e0 60m\u00b2 und 49m\u00b2 unterteilen. Die technische Grundausstattung steht Ihnen auch in diesem Raum standardm\u00e4ssig zur Verf\u00fcgung.</p>", "openstreetmap_id": "node/519736102"}, "geometry": {"type": "Point", "coordinates": ["8.480145", "47.569445"]}}, {"type": "Feature", "properties": {"identifier": "d3ee362b-3684-4b06-bc06-b08343be40cf", "name": "\u00c4btissinnenzimmer", "openstreetmap_id": "relation/8202830"}, "geometry": {"type": "Point", "coordinates": ["8.6762216", "47.6842585"]}}, {"type": "Feature", "properties": {"identifier": "d96f1b05-e96b-4ba3-a22c-ca190f3eb2a6", "name": "Lettensaal 1", "description": "<p>Lettensaal 1 ist ein Seminar- und Meeting-Raum mit 55 m&sup2; f&uuml;r Gruppen bis 30 Personen. Die kleine Nische schafft zus&auml;tzlichen Platz f&uuml;r Gespr&auml;che in kleiner Runde oder f&uuml;r Gruppenarbeiten. Der Raum eignet sich f&uuml;r Seminare, Sitzungen und Workshops.</p>", "openstreetmap_id": "node/519736102"}, "geometry": {"type": "Point", "coordinates": ["8.480145", "47.569445"]}}, {"type": "Feature", "properties": {"identifier": "da039d75-e20c-4ccb-93f2-22ebfd94a72b", "name": "Mehrzweckraum 1 + 2", "openstreetmap_id": "node/2955607720"}, "geometry": {"type": "Point", "coordinates": ["8.6402407", "47.704789"]}}, {"type": "Feature", "properties": {"identifier": "da208b3a-ba7f-4f76-8494-6235fed163ea", "name": "Sitzungszimmer", "openstreetmap_id": "way/168408693"}, "geometry": {"type": "Point", "coordinates": ["8.6593763", "47.6971527"]}}, {"type": "Feature", "properties": {"identifier": "da26f053-5a78-406e-b07e-70106aad3663", "name": "Saal Fortuna", "description": "<p>Hier k\u00f6nnen kleine Konzerte, Lesungen, Vortr\u00e4ge, Workshops und Bankette stattfinden. Gerne k\u00f6nnen Sie zus\u00e4tzlich Verpflegung buchen.</p>"}}, {"type": "Feature", "properties": {"identifier": "ddc69cc0-3431-48d2-94f0-1749fadfc309", "name": "Naville Halle"}}, {"type": "Feature", "properties": {"identifier": "de966fcb-ed09-44e4-b270-585da4193cce", "name": "Besprechungsraum 1", "openstreetmap_id": "way/145219181"}, "geometry": {"type": "Point", "coordinates": ["8.8602204", "47.6594087"]}}, {"type": "Feature", "properties": {"identifier": "def5ee58-6e13-4f8e-a152-0c8d2aa22805", "name": "S\u00e4ulensaal 8", "description": "<p>Die alten Holzbalken trennen den Raum dezent in zwei und bietet einen kleinen Vorraum. Auch er ist ausgestattet mit einem grossen Konferenztisch sowie einem LCD-Screen und bietet die ideale Bedingung f\u00fcr Meetings und Gruppenarbeiten als Breakout Room.</p>", "openstreetmap_id": "node/519736102"}, "geometry": {"type": "Point", "coordinates": ["8.480145", "47.569445"]}}, {"type": "Feature", "properties": {"identifier": "e31c2f94-a583-4a52-ab74-01280d9d1b19", "name": "Kyburgerzimmer", "openstreetmap_id": "relation/8202830"}, "geometry": {"type": "Point", "coordinates": ["8.6762216", "47.6842585"]}}, {"type": "Feature", "properties": {"identifier": "eb65c814-e689-40ba-a6ca-5ea495ff9f7b", "name": "Habsburgerzimmer", "description": "<p>Er eignet sich f&uuml;r Besprechungen, Workshops und kleinere Veranstaltungen, wenn du einen &uuml;berschaubaren Raum f&uuml;r konzentriertes Arbeiten suchst.</p>", "openstreetmap_id": "relation/8202830"}, "geometry": {"type": "Point", "coordinates": ["8.6762216", "47.6842585"]}}, {"type": "Feature", "properties": {"identifier": "ebb82e44-de8a-45fb-90e4-1c33ab3f17ab", "name": "Sitzungszimmer J\u00fcrg Weber"}}, {"type": "Feature", "properties": {"identifier": "ed0f525f-6471-4660-ae83-035714b9745b", "name": "Klarissinnenzimmer III", "openstreetmap_id": "relation/8202830"}, "geometry": {"type": "Point", "coordinates": ["8.6762216", "47.6842585"]}}, {"type": "Feature", "properties": {"identifier": "ed65ec74-4e2e-4161-9616-ed8672363839", "name": "Bleiche 4", "openstreetmap_id": "node/3156438855"}, "geometry": {"type": "Point", "coordinates": ["8.6321377", "47.6991974"]}}, {"type": "Feature", "properties": {"identifier": "f267cdee-0196-4d60-886f-fc9baa8c13c8", "name": "Vereinskeller", "description": "<p>An den &laquo;Carnotzet&raquo; angrenzend liegt der Vereinskeller im Keller des B&uuml;rgerasyls. F&uuml;r die Verpflegung stehen eine K&uuml;che f&uuml;r einfache Gerichte oder als Satellitenk&uuml;che f&uuml;r Caterings, eine Bar f&uuml;r die Getr&auml;nkeausgabe sowie eine Gl&auml;ser- und eine Geschirrabwaschmaschine zur Verf&uuml;gung.</p>"}}, {"type": "Feature", "properties": {"identifier": "f2c218a1-75d8-4afb-91e8-c65ad2f2d5aa", "name": "Kirchenzimmer", "openstreetmap_id": "relation/8202830"}, "geometry": {"type": "Point", "coordinates": ["8.6762216", "47.6842585"]}}, {"type": "Feature", "properties": {"identifier": "f3b54b37-7daf-4d67-82d0-c3ed1e922c97", "name": "Neher Halle", "openstreetmap_id": "way/4733562"}, "geometry": {"type": "Point", "coordinates": ["8.6134489", "47.6828558"]}}, {"type": "Feature", "properties": {"identifier": "f984ec2d-235c-4d2e-9f61-103868fd6d5a", "name": "Bleiche 3 - 5", "description": "Der Raum Bleiche 3 - 5  ist ein Teil des grossen Ballsaals. Ein Beamer mit einer Leinwand und ein hervorragendes Soundsystem sind fix installiert. Zudem \u00fcberzeugt der Raum mit Tageslicht dank bodentiefer Panoramafenster sowie klimatisierte Bel\u00fcftung im Minergie standard.\nDieser Raum ist in sich nochmals unterteilbar in Bleiche 3, Bleiche 4 und Bleiche 5, wenn mehrere Gruppenr\u00e4ume ben\u00f6tigt werden.", "image": "https://shltpimtsoch.sos-ch-dk-2.exoscale-cdn.com/catalog/0/4/3/6/0436be59f4d179c257a71f9d905c803b4f75d759_Event_room___Bleiche_2_5_U_Shape_.jpg", "openstreetmap_id": "node/3156438855"}, "geometry": {"type": "Point", "coordinates": ["8.6321377", "47.6991974"]}}, {"type": "Feature", "properties": {"identifier": "fbe79d69-50fb-4baa-bcee-4c9a98f53365", "name": "Kreativraum 3", "description": "<p>Dieser Raum bietet durch seine N\u00e4he zum Restaurant und zur Cigar Lounge direkten Einblick in das gastronomische Geschehen der Autohalle. Durch die schalldichte Verglasung werden die Eventbesucher selbstverst\u00e4ndlich nicht durch Ger\u00e4usche gest\u00f6rt. Auch gibt es durch die verdunkelbaren Fenster die M\u00f6glichkeit, vertrauliche Inhalte vor anderen G\u00e4sten zu sch\u00fctzen. Dieser Raum hat auch Zugang zur Terrasse, welche als Location f\u00fcr das Mittag- oder Abendessen und die Pausen dienen kann.</p>", "openstreetmap_id": "node/10752986782"}, "geometry": {"type": "Point", "coordinates": ["8.6921318", "47.5935036"]}}, {"type": "Feature", "properties": {"identifier": "fe3c7f00-84e0-4dc1-85a0-6cf6191b6922", "name": "Zunftsaal", "description": "Der Zunftsaal besitzt einen einzigartigen, pittoresken Charme und l\u00e4sst jede Feier in barocker Eleganz erstrahlen. Grossz\u00fcgig, warm und historisch elegant \u2013 feiern Sie bei uns Ihren Anlass. Wir sorgen daf\u00fcr, dass es unvergesslich wird.", "image": "https://shltpimtsoch.sos-ch-dk-2.exoscale-cdn.com/catalog/5/f/9/5/5f955840a15e252464111cf282ebd08d75eaeece_sorell_hotel_rueden_seminar.jpg", "openstreetmap_id": "node/3178863254"}, "geometry": {"type": "Point", "coordinates": ["8.6322501", "47.69672"]}}]}