{"type": "FeatureCollection", "features": [{"type": "Feature", "properties": {"identifier": "026fa574-c2ce-4fe2-978b-070640b4fe99", "name": "Pferdewagenfahrt Wilchingen, Osterfingen & Trasadingen", "description": "<p>Erlebe eine entspannte Fahrt mit dem Pferdewagen durch die sanften H&uuml;gel und Weinberge. Die Tour f&uuml;hrt dich abseits von Hektik durch die malerische Landschaft &ndash; perfekt f&uuml;r gem&uuml;tliche Stunden.</p>", "url": "https://bruderhof.ch/kutschenfahrten/", "image": "https://shltpimtsoch.sos-ch-dk-2.exoscale-cdn.com/catalog/a/c/4/2/ac42d84213eef9d2314bd206d7b6425aa6139729_pferdewagenfahrt_kutsche_september_spaetsommer_herbst_065.jpg", "openstreetmap_id": "node/3364772179"}, "geometry": {"type": "Point", "coordinates": ["8.4282698", "47.6812009"]}}, {"type": "Feature", "properties": {"identifier": "9139acaa-0f15-4482-b6ce-a30c96766ad4", "name": "Velosafari", "description": "<div>Starten Sie Ihre n\u00e4chste Veloreise und haben Sie Ihr Bett stets dabei. Mit dem Velocamper ist genau das der Fall. Denn im eigens daf\u00fcr konstruierten Cargo E-Bike mit integriertem Zeltaufbau sind Sie bestens ausger\u00fcstet f\u00fcr eine abenteuerliche Reise durch die Ostschweiz. Erleben Sie eine unvergessliche Velotour, vorbei an schier endlosen Rebh\u00e4ngen, malerischen Landschaften und schmucken D\u00f6rfern.</div><div><br></div><div>Dabei kann gew\u00e4hlt werden zwischen einer Tour im Schaffhauserland oder dem Thurgau.</div>\n\nDie Velosafari ist zwischen Mai und September buchbar.", "image": "https://shltpimtsoch.sos-ch-dk-2.exoscale-cdn.com/catalog/1/0/5/e/105e5413fcebc43ee639fcf493b78146f07fc463_osterfingen_velosafari_fahrrad_september_herbst_spaetsommer__3_.jpg", "openstreetmap_id": "way/26790652"}, "geometry": {"type": "Point", "coordinates": ["8.502173423760137", "47.702187968441685"]}}, {"type": "Feature", "properties": {"identifier": "b70f824c-9c8d-430a-a836-cb508e5a7d22", "name": "Kutschenfahrten Vogelsanger", "description": "<p>Fahrten durch den Naturpark Klettgaue sind immer ein sch&ouml;nes Erlebnis.&nbsp;<br>Eine kleine Reise durch die Reben zum Fasshotel in Trasadingen?<br>Immer sehr beliebt ist die Hallauer Weinstrasse, mit herrlicher Sicht auf den Klettgau.<br>Viele andere Routen finden Sie auf unserem Prospekt.<br>Sie geniessen bei uns vor der Abfahrt einen Ap&eacute;ro, w&auml;hrend wir unser Schimmel einspannen. Wir fahren mit reinrassigen Kladruber Pferde, sch&ouml;nen Geschirren aus echtem Leder und original getreu nachgebauten Kuschen mit Scheibenbremsen.</p><p>Der regionale Naturpark Schaffhausen umfasst den Klettgau mit seinen Weinbaugebieten, den Randen, sowie im s&uuml;dlichen Teil zwei deutsche Gemeinden.<br>Die Region Schaffhausen ist gepr&auml;gt von landschaftlicher Sch&ouml;nheit und kultureller Vielfalt. Da gibt es viele m&ouml;glichkeiten f&uuml;r beschauliche Kutschenfahrten, gerne machen wir ihnen Vorschl&auml;ge!</p>", "url": "http://www.kutschenfahrten-blauburgunderland.ch", "image": "https://shltpimtsoch.sos-ch-dk-2.exoscale-cdn.com/catalog/c/e/b/0/ceb08a67c0b8086eeb76d9de8539c4ca28a9d2a5_Vogelsanger_kutschenfahrten_blauburgunderland.jpg", "openstreetmap_id": "way/4714022"}, "geometry": {"type": "Point", "coordinates": ["8.50072503089905", "47.703256731459625"]}}, {"type": "Feature", "properties": {"identifier": "c19ec0b5-1a92-4659-9e66-2db806703630", "name": "Weinwanderung Stein am Rhein", "description": "Ob Geniesser oder Abenteurer, unsere Weinwanderung findet f\u00fcr jeden eine Route. Der Weinrucksack enth\u00e4lt alles, was Sie f\u00fcr eine genussvolle Wanderung brauchen: eine Flasche lokalen Weisswein in einem praktischen Weink\u00fchler, zwei Gl\u00e4ser und regionale Buchweizen-Tortillas als Snack. W\u00e4hlen Sie zwischen zwei wundersch\u00f6nen Wanderrouten durch die idyllischen Rebberge, die Ihnen atemberaubende Ausblicke auf den Rhein bieten. Entlang der Wege finden Sie zahlreiche B\u00e4nkli, die zum Verweilen, Entspannen und Geniessen des Weins einladen. G\u00f6nnen Sie sich dieses besondere Erlebnis und entdecken Sie die Sch\u00f6nheit von Stein am Rhein auf eine genussvolle Weise!", "url": "https://schaffhauserland.ch/de/index/shop/weinwanderung-stein-am-rhein.html#/experience/TDS00020015191022223", "image": "https://shltpimtsoch.sos-ch-dk-2.exoscale-cdn.com/catalog/6/4/4/e/644ee101988b7d5f654657b1c88a4399f4522f63_hallau_weinwanderung_wein_september_herbst_spaetsommer__3_.jpg", "openstreetmap_id": "node/60674548"}, "geometry": {"type": "Point", "coordinates": ["8.8599704", "47.6593612"]}}, {"type": "Feature", "properties": {"identifier": "c8255124-6c7b-45e1-a1a7-c331786b1722", "name": "Schifffahrtsgesellschaft Z\u00fcri-Rhy", "description": "<p class=\"x_MsoNormal\"><strong>Gross feiern auf der MS Rhystern, MS Rhenus oder MS Hecht</strong></p><p class=\"x_MsoNormal\">Unsere drei Restaurationsschiffe sind die Stars f&uuml;r anspruchsvolle Events: grossz&uuml;gig, komfortabel ausgestattet und bereit f&uuml;r Gesellschaften jeder Gr&ouml;sse.<br>Genug Platz zum Feiern, Tafeln und Tanzen &ndash; mit dem Rhein direkt vor den Fenstern.<br>Ob stilvolles Dinner, lebhafte Firmenfeier oder emotionale Hochzeit: Rhystern, Rhenus und Hecht setzen deinen Anlass gekonnt in Szene.</p><p class=\"x_MsoNormal\">&nbsp;</p><p class=\"x_MsoNormal\"><strong>F&uuml;r kleinere Feiern: Flipper und Neptun</strong></p><p class=\"x_MsoNormal\">Wer es pers&ouml;nlicher mag, ist auf unseren Partybooten genau richtig &ndash; ideal f&uuml;r kleinere Gruppen, die trotzdem gross feiern wollen.</p><p class=\"x_MsoNormal\">&nbsp;</p><p class=\"x_MsoNormal\"><strong>Wir planen mit dir</strong></p><p class=\"x_MsoNormal\">Unser Team ber&auml;t dich pers&ouml;nlich und k&uuml;mmert sich darum, dass dein Event reibungslos &uuml;ber das Wasser geht.</p><p class=\"x_MsoNormal\">Mit uns kommst Du in Fahrt. Wir freuen uns auf deinen Anlass.</p>", "url": "https://www.szr.ch/", "image": "https://shltpimtsoch.sos-ch-dk-2.exoscale-cdn.com/catalog/1/f/6/7/1f67aad57b43c1d9a3bff0ca53f4f886f7dd24ce_Rhystern_beim_Hirschen.JPG", "openstreetmap_id": "node/10213910558"}, "geometry": {"type": "Point", "coordinates": ["8.5554292", "47.5517691"]}}, {"type": "Feature", "properties": {"identifier": "c9773a5a-5be9-4a54-acfc-303eaf84a68c", "name": "Schatzsuche Neunkirch", "description": "<p>M\u00f6chtet ihr Spass und ein tolles Gruppenerlebnis haben?\nDann seid ihr bei uns genau richtig! Wir haben eine spannende \u00abSchatzsuche\u00bb zusammengestellt. Die ausgekl\u00fcgelte Route f\u00fchrt euch durch und um unser mittelalterliches St\u00e4dtchen zu den historischen Sehensw\u00fcrdigkeiten. Anhand der schriftlichen Unterlagen und speziellen Hinweisen gilt es Stationen zu finden. Ganz am Schluss liegt dann der Schatz gut versteckt f\u00fcr euch bereit. Also Augen auf und los geht\u2019s. Viel Vergn\u00fcgen.</p><p>Wir empfehlen die Schatzsuche Neunkirch ab einem Alter von <b>mindestens 16 Jahren</b>. Darunter ist die Schatzsuche nur in Begleitung einer erwachsenen Person m\u00f6glich. Es gibt einige knifflige R\u00e4tsel, jedoch auch R\u00e4tsel und Stationen f\u00fcr Kinder.</p><p>Die Schatzsuche ist von M\u00e4rz bis Oktober buchbar.</p>", "image": "https://shltpimtsoch.sos-ch-dk-2.exoscale-cdn.com/catalog/3/3/9/1/3391c8c0f66151c23a4393b85f702829f3d1946c_neunkirch_schatzsuche_familie_kinder_spaetsommer_september__48_.jpg", "openstreetmap_id": "node/3217414535"}, "geometry": {"type": "Point", "coordinates": ["8.4987558", "47.6902925"]}}, {"type": "Feature", "properties": {"identifier": "ea670dde-c959-4b06-8651-f98fcd62adf2", "name": "Mofun - min T\u00f6ffli Tag", "description": "Hast auch du eine T\u00f6ffli Geschichte aus der Jugend zu erz\u00e4hlen? Vielleicht eine Tour \u00fcber den Gotthard ins Tessin oder sogar nach Italien? Wie w\u00e4re es, diese Erinnerung noch einmal aufleben zu lassen? Wir von Mofun helfen dir dabei und machen es m\u00f6glich.\nStarte zum Beispiel bei uns in G\u00e4chlingen im Kanton Schaffhausen und entdecke die wundersch\u00f6nen Radwege durch die Reben des Blauburgunderlands oder die bekannte Bergrennstrecke auf den Oberhallauerberg. Ein Abstecher zum Rheinfall oder zu anderen Sehensw\u00fcrdigkeiten runden die T\u00f6ffli Tour ab. Auf Wunsch begleiten dich unsere Tour-Guides an die sch\u00f6nsten Orte der Region. \nDu m\u00f6chtest lieber an einem anderen Ort starten oder die Tour beenden? Auch das ist kein Problem! Gerne transportieren wir die Mofas an den Start- und/oder Zielort deiner Wahl.", "url": "https://www.mofun.ch", "image": "https://shltpimtsoch.sos-ch-dk-2.exoscale-cdn.com/catalog/0/b/4/c/0b4c4f22bec7ace7eb4acd944fb00ec991162101_Mofun_Hauptbild.jpg", "openstreetmap_id": "node/3191532090"}, "geometry": {"type": "Point", "coordinates": ["8.502312898624275", "47.702220456351085"]}}, {"type": "Feature", "properties": {"identifier": "ed4e714a-4fdc-41d5-b81b-15c0b5eef609", "name": "FoodTrail Schaffhausen", "description": "Ein R\u00e4tsel f\u00fchrt Sie an verschiedene Genuss-Stationen in der Stadt. Sie werden mit einer regionalen K\u00f6stlichkeit belohnt und erhalten die n\u00e4chste Aufgabe.", "url": "https://www.foodtrail.ch/trails/schaffhausen/", "image": "https://shltpimtsoch.sos-ch-dk-2.exoscale-cdn.com/catalog/8/8/4/a/884ae6a8307c64d6412c84f29576c37ee227c0d5_Foodtrail_SHLTa_2.jpg", "openstreetmap_id": "node/2441592879"}, "geometry": {"type": "Point", "coordinates": ["8.6342689", "47.6963232"]}}]}